{
  "type": "FeatureCollection",
  "features": [
    {
      "type": "Feature",
      "properties": {
        "norad_id": 30368,
        "name": "FENGYUN 1C DEB",
        "group": "fengyun-1c-debris",
        "lat": -77.7623973174826,
        "lon": -136.1622303339009,
        "alt_km": 894.1717710410967,
        "timestamp": "2025-12-12T03:50:52.693076+00:00",
        "meta_object_name": "FENGYUN 1C DEB",
        "meta_object_id": "1999-025ACF",
        "meta_epoch": "2025-12-11T05:45:11.997216",
        "meta_mean_motion": 13.75362914,
        "meta_eccentricity": 0.01860595,
        "meta_inclination": 99.1883,
        "meta_ra_of_asc_node": 91.2155,
        "meta_arg_of_pericenter": 312.0154,
        "meta_mean_anomaly": 75.6214,
        "meta_ephemeris_type": 0,
        "meta_classification_type": "U",
        "meta_norad_cat_id": 30368,
        "meta_element_set_no": 999,
        "meta_rev_at_epoch": 94641,
        "meta_bstar": 0.00060934876,
        "meta_mean_motion_dot": 6.2e-06,
        "meta_mean_motion_ddot": 0,
        "tle_line1": "1 30368U 99025ACF 25345.23972219  .00000620  00000+0  60935-3 0  9992",
        "tle_line2": "2 30368  99.1883  91.2155 0186059 312.0154  75.6214 13.75362914946418"
      },
      "geometry": {
        "type": "Point",
        "coordinates": [
          -136.1622303339009,
          -77.7623973174826
        ]
      }
    },
    {
      "type": "Feature",
      "properties": {
        "norad_id": 30369,
        "name": "FENGYUN 1C DEB",
        "group": "fengyun-1c-debris",
        "lat": 61.23359258994249,
        "lon": -32.70514853305081,
        "alt_km": 896.3466717709198,
        "timestamp": "2025-12-12T03:50:52.693086+00:00",
        "meta_object_name": "FENGYUN 1C DEB",
        "meta_object_id": "1999-025ACG",
        "meta_epoch": "2025-12-11T12:49:19.064352",
        "meta_mean_motion": 14.12056236,
        "meta_eccentricity": 0.00991261,
        "meta_inclination": 98.7212,
        "meta_ra_of_asc_node": 342.9221,
        "meta_arg_of_pericenter": 198.9357,
        "meta_mean_anomaly": 283.5503,
        "meta_ephemeris_type": 0,
        "meta_classification_type": "U",
        "meta_norad_cat_id": 30369,
        "meta_element_set_no": 999,
        "meta_rev_at_epoch": 97229,
        "meta_bstar": 0.00031611334,
        "meta_mean_motion_dot": 5.64e-06,
        "meta_mean_motion_ddot": 0,
        "tle_line1": "1 30369U 99025ACG 25345.53424843  .00000564  00000+0  31611-3 0  9997",
        "tle_line2": "2 30369  98.7212 342.9221 0099126 198.9357 283.5503 14.12056236972299"
      },
      "geometry": {
        "type": "Point",
        "coordinates": [
          -32.70514853305081,
          61.23359258994249
        ]
      }
    },
    {
      "type": "Feature",
      "properties": {
        "norad_id": 30370,
        "name": "FENGYUN 1C DEB",
        "group": "fengyun-1c-debris",
        "lat": -26.193495724551173,
        "lon": 46.596010021741066,
        "alt_km": 764.5960171939605,
        "timestamp": "2025-12-12T03:50:52.693096+00:00",
        "meta_object_name": "FENGYUN 1C DEB",
        "meta_object_id": "1999-025ACH",
        "meta_epoch": "2025-12-11T15:12:27.874080",
        "meta_mean_motion": 14.19141734,
        "meta_eccentricity": 0.00992026,
        "meta_inclination": 99.0563,
        "meta_ra_of_asc_node": 41.558,
        "meta_arg_of_pericenter": 320.5303,
        "meta_mean_anomaly": 203.5012,
        "meta_ephemeris_type": 0,
        "meta_classification_type": "U",
        "meta_norad_cat_id": 30370,
        "meta_element_set_no": 999,
        "meta_rev_at_epoch": 97078,
        "meta_bstar": 0.0017770548,
        "meta_mean_motion_dot": 3.86e-05,
        "meta_mean_motion_ddot": 0,
        "tle_line1": "1 30370U 99025ACH 25345.63365595  .00003860  00000+0  17771-2 0  9990",
        "tle_line2": "2 30370  99.0563  41.5580 0099202 320.5303 203.5012 14.19141734970787"
      },
      "geometry": {
        "type": "Point",
        "coordinates": [
          46.596010021741066,
          -26.193495724551173
        ]
      }
    },
    {
      "type": "Feature",
      "properties": {
        "norad_id": 30371,
        "name": "FENGYUN 1C DEB",
        "group": "fengyun-1c-debris",
        "lat": -32.165711339185684,
        "lon": 34.61692902070098,
        "alt_km": 792.16931791965,
        "timestamp": "2025-12-12T03:50:52.693106+00:00",
        "meta_object_name": "FENGYUN 1C DEB",
        "meta_object_id": "1999-025ACJ",
        "meta_epoch": "2025-12-11T15:16:50.429856",
        "meta_mean_motion": 14.30222815,
        "meta_eccentricity": 0.00069007,
        "meta_inclination": 98.5764,
        "meta_ra_of_asc_node": 28.6549,
        "meta_arg_of_pericenter": 340.499,
        "meta_mean_anomaly": 172.478,
        "meta_ephemeris_type": 0,
        "meta_classification_type": "U",
        "meta_norad_cat_id": 30371,
        "meta_element_set_no": 999,
        "meta_rev_at_epoch": 97887,
        "meta_bstar": 0.0015910332,
        "meta_mean_motion_dot": 4.082e-05,
        "meta_mean_motion_ddot": 0,
        "tle_line1": "1 30371U 99025ACJ 25345.63669479  .00004082  00000+0  15910-2 0  9999",
        "tle_line2": "2 30371  98.5764  28.6549 0006900 340.4990 172.4780 14.30222815978879"
      },
      "geometry": {
        "type": "Point",
        "coordinates": [
          34.61692902070098,
          -32.165711339185684
        ]
      }
    },
    {
      "type": "Feature",
      "properties": {
        "norad_id": 30374,
        "name": "FENGYUN 1C DEB",
        "group": "fengyun-1c-debris",
        "lat": -11.362707326001528,
        "lon": -148.4921207766984,
        "alt_km": 721.1526970093555,
        "timestamp": "2025-12-12T03:50:52.693116+00:00",
        "meta_object_name": "FENGYUN 1C DEB",
        "meta_object_id": "1999-025ACM",
        "meta_epoch": "2025-12-11T02:20:24.859680",
        "meta_mean_motion": 14.61235461,
        "meta_eccentricity": 0.00392751,
        "meta_inclination": 99.2726,
        "meta_ra_of_asc_node": 208.4367,
        "meta_arg_of_pericenter": 173.1868,
        "meta_mean_anomaly": 347.6508,
        "meta_ephemeris_type": 0,
        "meta_classification_type": "U",
        "meta_norad_cat_id": 30374,
        "meta_element_set_no": 999,
        "meta_rev_at_epoch": 98898,
        "meta_bstar": 0.0025901304,
        "meta_mean_motion_dot": 0.00012874,
        "meta_mean_motion_ddot": 0,
        "tle_line1": "1 30374U 99025ACM 25345.09750995  .00012874  00000+0  25901-2 0  9995",
        "tle_line2": "2 30374  99.2726 208.4367 0039275 173.1868 347.6508 14.61235461988982"
      },
      "geometry": {
        "type": "Point",
        "coordinates": [
          -148.4921207766984,
          -11.362707326001528
        ]
      }
    },
    {
      "type": "Feature",
      "properties": {
        "norad_id": 30377,
        "name": "FENGYUN 1C DEB",
        "group": "fengyun-1c-debris",
        "lat": -79.13617303282692,
        "lon": 60.34492884654923,
        "alt_km": 818.8351874936634,
        "timestamp": "2025-12-12T03:50:52.693126+00:00",
        "meta_object_name": "FENGYUN 1C DEB",
        "meta_object_id": "1999-025ACQ",
        "meta_epoch": "2025-12-11T11:51:37.724832",
        "meta_mean_motion": 13.99169648,
        "meta_eccentricity": 0.01181448,
        "meta_inclination": 98.8937,
        "meta_ra_of_asc_node": 5.023,
        "meta_arg_of_pericenter": 270.1316,
        "meta_mean_anomaly": 252.4136,
        "meta_ephemeris_type": 0,
        "meta_classification_type": "U",
        "meta_norad_cat_id": 30377,
        "meta_element_set_no": 999,
        "meta_rev_at_epoch": 96189,
        "meta_bstar": 0.00048984972,
        "meta_mean_motion_dot": 7.1e-06,
        "meta_mean_motion_ddot": 0,
        "tle_line1": "1 30377U 99025ACQ 25345.49418663  .00000710  00000+0  48985-3 0  9999",
        "tle_line2": "2 30377  98.8937   5.0230 0118144 270.1316 252.4136 13.99169648961897"
      },
      "geometry": {
        "type": "Point",
        "coordinates": [
          60.34492884654923,
          -79.13617303282692
        ]
      }
    },
    {
      "type": "Feature",
      "properties": {
        "norad_id": 30379,
        "name": "FENGYUN 1C DEB",
        "group": "fengyun-1c-debris",
        "lat": 15.666582402954711,
        "lon": -1.5588521162977216,
        "alt_km": 868.926772322352,
        "timestamp": "2025-12-12T03:50:52.693137+00:00",
        "meta_object_name": "FENGYUN 1C DEB",
        "meta_object_id": "1999-025ACS",
        "meta_epoch": "2025-12-11T13:08:44.221056",
        "meta_mean_motion": 14.08033134,
        "meta_eccentricity": 0.0035506,
        "meta_inclination": 98.7583,
        "meta_ra_of_asc_node": 0.3248,
        "meta_arg_of_pericenter": 282.6636,
        "meta_mean_anomaly": 229.4135,
        "meta_ephemeris_type": 0,
        "meta_classification_type": "U",
        "meta_norad_cat_id": 30379,
        "meta_element_set_no": 999,
        "meta_rev_at_epoch": 96800,
        "meta_bstar": 0.00039567808,
        "meta_mean_motion_dot": 6.34e-06,
        "meta_mean_motion_ddot": 0,
        "tle_line1": "1 30379U 99025ACS 25345.54773404  .00000634  00000+0  39568-3 0  9996",
        "tle_line2": "2 30379  98.7583   0.3248 0035506 282.6636 229.4135 14.08033134968009"
      },
      "geometry": {
        "type": "Point",
        "coordinates": [
          -1.5588521162977216,
          15.666582402954711
        ]
      }
    }
  ]
}